OBJECT_NAME,OBJECT_ID,EPOCH,MEAN_MOTION,ECCENTRICITY,INCLINATION,RA_OF_ASC_NODE,ARG_OF_PERICENTER,MEAN_ANOMALY,EPHEMERIS_TYPE,CLASSIFICATION_TYPE,NORAD_CAT_ID,ELEMENT_SET_NO,REV_AT_EPOCH,BSTAR,MEAN_MOTION_DOT,MEAN_MOTION_DDOT
WEINA 2,2020-103B,2024-08-19T18:07:55.585344,14.62094548,.0003492,98.1263,122.8888,117.0215,243.1343,0,U,47303,999,19422,.71603E-3,.3552E-4,0
TURKSAT 5A,2021-001A,2024-08-19T13:21:52.926912,1.00270273,.0000197,0.0205,98.1664,16.2414,85.3684,0,U,47306,999,1328,0,.148E-5,0
TIANTONG-1 3,2021-003A,2024-08-19T14:08:30.211584,1.00268670,.0003965,2.7525,313.3781,219.0860,89.5343,0,U,47321,999,1327,0,-.158E-5,0
GMS-T,2021-004A,2024-08-19T09:22:15.428640,13.16629138,.0004107,90.0794,235.0397,71.7378,288.4200,0,U,47346,999,17185,.19153E-3,.82E-6,0
STARLINK-2017,2021-005C,2024-08-19T12:20:07.501344,15.06403780,.0001318,53.0546,47.7545,91.6152,268.4988,0,U,47351,999,19811,.12831E-3,.163E-4,0
STARLINK-2034,2021-005D,2024-08-19T14:23:34.300320,15.06396543,.0001174,53.0537,87.3831,89.4584,270.6540,0,U,47352,999,19756,.76017E-4,.851E-5,0
STARLINK-2045,2021-005E,2024-08-19T19:41:22.042464,15.06393491,.0000936,53.0556,31.3842,70.5809,289.5281,0,U,47353,999,19903,-.26924E-3,-.4288E-4,0
STARLINK-2046,2021-005F,2024-08-19T11:41:06.047520,15.06407867,.0000856,53.0552,53.4340,83.6855,276.4232,0,U,47354,999,19803,.99128E-4,.1196E-4,0
STARLINK-2047,2021-005G,2024-08-19T04:35:44.297088,15.06400052,.0001206,53.0555,39.2207,102.1907,257.9217,0,U,47355,999,19820,.9495E-3,.13889E-3,0
STARLINK-2049,2021-005H,2024-08-18T23:19:55.485408,15.06405316,.0000938,53.0553,60.2033,87.3213,272.7883,0,U,47356,999,19789,-.15362E-4,-.51E-5,0
STARLINK-2050,2021-005J,2024-08-19T21:12:20.714112,15.06411885,.0001131,53.0540,86.5336,98.9127,261.1990,0,U,47357,999,19855,.41932E-3,.5972E-4,0
STARLINK-2055,2021-005K,2024-08-19T12:18:47.006784,15.06414361,.0000968,53.0569,57.7611,91.9905,268.1195,0,U,47358,999,19797,.38734E-3,.5495E-4,0
STARLINK-2069,2021-005L,2024-08-19T07:40:52.169664,15.07818331,.0001158,53.0529,83.5857,208.8473,151.2453,0,U,47359,999,19759,.96826E-3,.14734E-3,0
STARLINK-2071,2021-005N,2024-08-19T12:30:46.131264,15.06408761,.000112,53.0547,57.7312,97.4617,262.6500,0,U,47361,999,19797,.11175E-3,.1384E-4,0
STARLINK-2076,2021-005P,2024-08-19T13:35:47.653728,15.06405450,.0001505,53.0557,87.5336,111.7888,248.3261,0,U,47362,999,19756,-.14054E-3,-.2375E-4,0
STARLINK-2077,2021-005Q,2024-08-19T15:16:37.710912,15.06405913,.0001453,53.0549,87.2168,99.4545,260.6609,0,U,47363,999,19757,-.49598E-3,-.7663E-4,0
STARLINK-2081,2021-005T,2024-08-19T20:40:25.231296,15.06392370,.0001145,53.0527,86.2108,81.8657,278.2462,0,U,47366,999,19760,.1079E-2,.15823E-3,0
STARLINK-2082,2021-005U,2024-08-19T02:11:05.933760,15.06396289,.0001461,53.0543,89.6659,62.8816,297.2322,0,U,47367,999,19749,.55458E-3,.7988E-4,0
STARLINK-2084,2021-005V,2024-08-19T00:24:56.619072,15.06392441,.0001523,53.0522,89.9966,52.6248,307.4879,0,U,47368,999,19748,.40038E-3,.5686E-4,0
STARLINK-2086,2021-005X,2024-08-19T12:16:10.687584,15.06382524,.0001107,53.0557,47.7788,97.9079,262.2036,0,U,47370,999,19812,-.20496E-3,-.3331E-4,0
STARLINK-2088,2021-005Y,2024-08-19T07:08:19.553856,15.06399329,.0001026,53.0533,88.7399,86.5699,273.5407,0,U,47371,999,19752,.43082E-3,.6141E-4,0
STARLINK-2089,2021-005Z,2024-08-19T21:20:56.452128,15.06384491,.0001304,53.0551,81.4034,104.0425,256.0709,0,U,47372,999,19767,-.48788E-4,-.1008E-4,0
STARLINK-2092,2021-005AA,2024-08-19T07:03:01.230336,15.06404542,.0001017,53.0539,88.7566,88.7038,271.4067,0,U,47373,999,19752,.54567E-3,.7857E-4,0
STARLINK-2093,2021-005AB,2024-08-19T07:29:32.917056,15.06384777,.000143,53.0531,88.6461,95.5678,264.5474,0,U,47374,999,19752,.13324E-2,.19612E-3,0
STARLINK-2094,2021-005AC,2024-08-19T07:40:10.643232,15.06401171,.0000806,53.0549,88.6408,98.6244,261.4837,0,U,47375,999,19752,-.41882E-4,-.905E-5,0
STARLINK-2096,2021-005AD,2024-08-19T07:45:29.253600,15.06395476,.0001201,53.0539,88.6224,78.9017,281.2107,0,U,47376,999,19752,.12048E-3,.1513E-4,0
STARLINK-2097,2021-005AE,2024-08-19T07:24:15.069600,15.06401762,.0000867,53.0563,88.6912,122.9245,237.1827,0,U,47377,999,19752,-.10061E-3,-.178E-4,0
STARLINK-2098,2021-005AF,2024-08-19T12:00:15.237504,15.06396501,.0001379,53.0540,47.8237,116.3785,243.7345,0,U,47378,999,19811,-.75176E-4,-.1401E-4,0
STARLINK-2099,2021-005AG,2024-08-19T20:07:10.887744,15.06434978,.0001374,53.0544,46.2987,96.8386,263.2759,0,U,47379,999,19816,.10439E-2,.15316E-3,0
STARLINK-2100,2021-005AH,2024-08-19T12:51:59.453856,15.06412891,.00011,53.0533,57.6711,106.1813,253.9297,0,U,47380,999,19798,.41436E-3,.5898E-4,0
STARLINK-2101,2021-005AJ,2024-08-18T19:44:17.990880,15.06407841,.0001108,53.0552,65.9542,116.5252,243.5851,0,U,47381,999,19780,.61719E-4,.638E-5,0
STARLINK-2102,2021-005AK,2024-08-18T19:10:27.218496,15.06398183,.0001147,53.0541,60.9775,72.0758,288.0356,0,U,47382,999,19786,.19356E-3,.2603E-4,0
STARLINK-2103,2021-005AL,2024-08-19T12:10:54.144768,15.06415934,.0000892,53.0558,48.0742,93.8173,266.2918,0,U,47383,999,19811,.74707E-4,.832E-5,0
STARLINK-2104,2021-005AM,2024-08-19T05:58:02.385408,15.06403966,.0001169,53.0542,59.2031,88.8033,271.3090,0,U,47384,999,19793,.85774E-3,.12519E-3,0
STARLINK-2105,2021-005AN,2024-08-19T12:14:50.345952,15.06389667,.0001636,53.0537,57.7867,104.0633,256.0537,0,U,47385,999,19797,-.52466E-3,-.8086E-4,0
STARLINK-2106,2021-005AP,2024-08-19T12:57:18.254304,15.06425742,.0001066,53.0543,57.6492,103.2917,256.8191,0,U,47386,999,19798,.5079E-3,.7297E-4,0
STARLINK-2108,2021-005AQ,2024-08-19T22:00:00.999936,15.32988592,.0001263,53.0572,84.5931,87.2563,219.5890,0,U,47387,999,19762,.34609E-1,.1217792E-1,0
STARLINK-2109,2021-005AR,2024-08-19T14:34:11.237664,15.06404020,.0001393,53.0539,87.3487,90.0283,270.0865,0,U,47388,999,19852,.74943E-3,.109E-3,0
STARLINK-2110,2021-005AS,2024-08-19T06:05:53.893536,15.06415727,.0001067,53.0545,68.9219,72.1495,287.9611,0,U,47389,999,19779,-.75374E-3,-.11495E-3,0
STARLINK-2111,2021-005AT,2024-08-19T07:34:52.745664,15.06393442,.0000958,53.0557,88.6575,92.1154,267.9945,0,U,47390,999,19752,.37715E-4,.28E-5,0
STARLINK-2112,2021-005AU,2024-08-19T06:12:33.634368,15.06404903,.0000978,53.0526,58.9124,84.0019,276.1081,0,U,47391,999,19854,.77103E-4,.867E-5,0
STARLINK-2113,2021-005AV,2024-08-19T06:13:55.401600,15.06402899,.0001118,53.0538,58.9071,87.1500,272.9616,0,U,47392,999,19793,.76665E-4,.861E-5,0
STARLINK-2114,2021-005AW,2024-08-19T03:40:43.497408,15.06400044,.000124,53.0573,34.7460,98.4867,261.6263,0,U,47393,999,19826,.56721E-4,.564E-5,0
STARLINK-2115,2021-005AX,2024-08-19T05:13:33.824640,15.06397142,.0001265,53.0555,54.2644,79.6065,280.5066,0,U,47394,999,19861,.26839E-3,.3718E-4,0
STARLINK-2117,2021-005AY,2024-08-18T16:59:04.937856,15.06402381,.0000593,53.0542,51.3871,74.1568,285.9486,0,U,47395,999,19799,.61653E-4,.637E-5,0
STARLINK-2119,2021-005BA,2024-08-19T08:17:20.158944,15.06401109,.0001281,53.0526,88.5243,105.7414,254.3716,0,U,47397,999,19753,.40628E-3,.5775E-4,0
STARLINK-2120,2021-005BB,2024-08-19T12:25:29.113248,15.06386590,.0001224,53.0543,57.7540,64.3030,295.8085,0,U,47398,999,19858,.10784E-3,.1325E-4,0
STARLINK-2121,2021-005BC,2024-08-19T13:17:15.550080,15.06401011,.0001346,53.0541,67.8279,101.2363,258.8778,0,U,47399,999,19783,-.12185E-4,-.463E-5,0
STARLINK-2122,2021-005BD,2024-08-19T12:21:27.019584,15.06442284,.0001177,53.0541,47.7743,109.1055,251.0062,0,U,47400,999,19811,-.80796E-3,-.12309E-3,0
STARLINK-2123,2021-005BE,2024-08-19T12:46:41.746368,15.06397921,.0001438,53.0548,57.6838,107.0245,253.0901,0,U,47401,999,19798,.28386E-3,.3949E-4,0
STARLINK-2124,2021-005BF,2024-08-19T11:37:41.734848,15.06401333,.00013,53.0557,57.9016,105.3815,254.7318,0,U,47402,999,19797,-.5604E-4,-.1116E-4,0
STARLINK-2127,2021-005BG,2024-08-19T05:26:08.760192,15.06400609,.0000984,53.0564,59.0637,86.7605,273.3496,0,U,47403,999,19793,-.12469E-4,-.467E-5,0
STARLINK-2128,2021-005BH,2024-08-19T11:42:59.781888,15.06395939,.000132,53.0564,57.8838,100.9691,259.1446,0,U,47404,999,19797,-.15985E-3,-.2661E-4,0
STARLINK-2130,2021-005BJ,2024-08-19T20:51:00.546048,15.06480561,.0001008,53.0543,86.1756,79.2128,280.8975,0,U,47405,999,19760,-.10146E-2,-.15394E-3,0
STARLINK-2133,2021-005BK,2024-08-19T05:36:46.142496,15.06408776,.0001278,53.0551,59.0293,77.1562,282.9570,0,U,47406,999,19855,.36733E-4,.266E-5,0
STARLINK-2134,2021-005BL,2024-08-19T05:47:23.309664,15.06450719,.0001577,53.0560,58.9951,73.4450,286.6712,0,U,47407,999,19793,-.5913E-3,-.909E-4,0
STARLINK-2135,2021-005BM,2024-08-19T13:02:34.982880,15.06433836,.0001208,53.0552,57.6341,127.0564,233.0535,0,U,47408,999,19798,-.87843E-3,-.13353E-3,0
ASTROCAST-0101,2021-006T,2024-08-19T19:20:34.384992,15.29402175,.0008153,97.3389,284.9612,53.1947,307.0040,0,U,47430,999,19788,.88652E-3,.25282E-3,0
UVSQ-SAT,2021-006AB,2024-08-19T09:27:04.931712,15.59098370,.0003154,97.3178,294.1359,314.8051,45.2949,0,U,47438,999,19854,.1712E-2,.135578E-2,0
SOMP2B,2021-006AJ,2024-08-19T10:12:42.539904,15.53840672,.0003722,97.3138,292.0581,350.8609,9.2576,0,U,47445,999,19844,.15655E-2,.101677E-2,0
KEPLER-12 (BOBA),2021-006AK,2024-08-19T14:37:12.564480,15.59351703,.0001531,97.3170,292.1445,224.9495,135.1638,0,U,47446,999,19839,.23234E-2,.186968E-2,0
CUBEL,2021-006AM,2024-08-19T14:19:51.179232,15.22877058,.0010732,97.3379,282.6196,43.4820,316.7261,0,U,47448,999,19766,.4522E-3,.10548E-3,0
IDEASSAT,2021-006AX,2024-08-19T14:26:11.652000,15.49679709,.0003895,97.3263,292.5434,353.7117,6.4085,0,U,47458,999,19838,.14778E-2,.82554E-3,0
FLOCK 4S-11,2021-006BB,2024-08-19T13:14:02.635296,15.36150815,.0005506,97.3293,284.4323,63.6907,296.4902,0,U,47462,999,19786,.13842E-2,.48947E-3,0
FLOCK 4S-33,2021-006BJ,2024-08-19T10:44:07.132992,15.56729337,.0001867,97.3195,297.8980,313.8180,46.2920,0,U,47469,999,19877,.10515E-2,.75612E-3,0
FLOCK 4S-9,2021-006BT,2024-08-19T04:18:12.517056,15.53754789,.0002511,97.3224,297.1439,333.0691,27.0432,0,U,47478,999,19870,.9513E-3,.61236E-3,0
